1 46283U 20061M   21359.47871862  .00004227  00000-0  25221-3 0  9995
2 46283  97.4716  68.6096 0004875 128.5121 231.6547 15.11657693 72199
1 46283U 20061M   21359.80969069  .00004310  00000-0  25709-3 0  9993
2 46283  97.4716  68.9331 0004906 127.4887 232.6790 15.11660796 72241
1 46283U 20061M   21360.14066216  .00003954  00000-0  23616-3 0  9992
2 46283  97.4716  69.2567 0004932 126.5796 233.5889 15.11662873 72296
1 46283U 20061M   21360.27305066  .00003799  00000-0  22704-3 0  9999
2 46283  97.4717  69.3862 0004947 126.2085 233.9604 15.11663612 72314
1 46283U 20061M   21360.80260360  .00003301  00000-0  19773-3 0  9996
2 46283  97.4718  69.9039 0004992 124.6972 235.4729 15.11666824 72395
1 46283U 20061M   21361.46454298  .00003517  00000-0  21040-3 0  9993
2 46283  97.4719  70.5511 0005037 122.8510 237.3205 15.11672398 72492
1 46283U 20061M   21361.72931819  .00003422  00000-0  20481-3 0  9994
2 46283  97.4720  70.8101 0005052 122.1699 238.0022 15.11674194 72536
1 46283U 20061M   21362.25886737  .00003317  00000-0  19862-3 0  9995
2 46283  97.4720  71.3278 0005087 120.7597 239.4135 15.11677921 72616
1 46283U 20061M   21362.72222166  .00003533  00000-0  21128-3 0  9995
2 46283  97.4721  71.7809 0005108 119.5786 240.5954 15.11681928 72682
1 46283U 20061M   21363.45034806  .00003263  00000-0  19542-3 0  9995
2 46283  97.4721  72.4929 0005156 117.7049 242.4705 15.11686471 72793
1 46283U 20061M   21363.78131348  .00003479  00000-0  20807-3 0  9995
2 46283  97.4720  72.8165 0005183 116.9951 243.1809 15.11689590 72845
1 46283U 20061M   21364.50943463  .00004003  00000-0  23878-3 0  9990
2 46283  97.4719  73.5284 0005143 115.3728 244.8036 15.11697002 72953
1 46283U 20061M   21364.77420558  .00003608  00000-0  21558-3 0  9997
2 46283  97.4719  73.7874 0005153 114.8534 245.3233 15.11698210 72991
1 46283U 20061M   21365.17136119  .00003514  00000-0  21008-3 0  9995
2 46283  97.4718  74.1758 0005127 114.0129 246.1638 15.11701124 73054
1 46283U 20061M   21365.43613119  .00003137  00000-0  18794-3 0  9993
2 46283  97.4718  74.4346 0005127 113.3626 246.8144 15.11702304 73098
1 46283U 20061M   21365.76709314  .00003385  00000-0  20249-3 0  9995
2 46283  97.4717  74.7581 0005120 112.5919 247.5854 15.11705511 73145
1 46283U 20061M   22001.42901572  .00003701  00000-0  22097-3 0  9991
2 46283  97.4715  75.4052 0005129 111.0396 249.1383 15.11710985 73243
1 46283U 20061M   22001.75997578  .00004282  00000-0  25502-3 0  9997
2 46283  97.4714  75.7288 0005117 110.2813 249.8968 15.11715014 73297
